{"type": "FeatureCollection", "features": [ {"type": "Feature", "properties": {"norad_id": 29973, "name": "FENGYUN 1C DEB", "group": "fengyun-1c-debris", "lat": -23.230579503948388, "lon": 1.9315398573216194, "alt_km": 910.2190951370385, "timestamp": "2025-12-23T20:42:37.348669+00:00", "meta": {"OBJECT_NAME": "FENGYUN 1C DEB", "OBJECT_ID": "1999-025KX", "EPOCH": "2025-12-23T05:44:55.155264", "MEAN_MOTION": 14.06556778, "ECCENTRICITY": 0.00595595, "INCLINATION": 98.8424, "RA_OF_ASC_NODE": 357.4913, "ARG_OF_PERICENTER": 119.7856, "MEAN_ANOMALY": 302.2968, "EPHEMERIS_TYPE": 0, "CLASSIFICATION_TYPE": "U", "NORAD_CAT_ID": 29973, "ELEMENT_SET_NO": 999, "REV_AT_EPOCH": 96866, "BSTAR": 0.00068093127, "MEAN_MOTION_DOT": 1.103e-05, "MEAN_MOTION_DDOT": 0}, "tle": {"line1": "1 29973U 99025KX  25357.23952726  .00001103  00000+0  68093-3 0  9996", "line2": "2 29973  98.8424 357.4913 0059559 119.7856 302.2968 14.06556778968663"}}, "geometry": {"type": "Point", "coordinates": [1.9315398573216194, -23.230579503948388]}}, {"type": "Feature", "properties": {"norad_id": 29974, "name": "FENGYUN 1C DEB", "group": "fengyun-1c-debris", "lat": 10.577725336154343, "lon": -96.32691064486775, "alt_km": 859.9343293120601, "timestamp": "2025-12-23T20:42:37.348680+00:00", "meta": {"OBJECT_NAME": "FENGYUN 1C DEB", "OBJECT_ID": "1999-025KY", "EPOCH": "2025-12-23T04:53:53.376000", "MEAN_MOTION": 14.14887903, "ECCENTRICITY": 0.00460125, "INCLINATION": 98.8929, "RA_OF_ASC_NODE": 81.3413, "ARG_OF_PERICENTER": 52.3824, "MEAN_ANOMALY": 2.3252, "EPHEMERIS_TYPE": 0, "CLASSIFICATION_TYPE": "U", "NORAD_CAT_ID": 29974, "ELEMENT_SET_NO": 999, "REV_AT_EPOCH": 97073, "BSTAR": 0.00098320049, "MEAN_MOTION_DOT": 1.874e-05, "MEAN_MOTION_DDOT": 0}, "tle": {"line1": "1 29974U 99025KY  25357.20409000  .00001874  00000+0  98320-3 0  9997", "line2": "2 29974  98.8929  81.3413 0046012  52.3824   2.3252 14.14887903970730"}}, "geometry": {"type": "Point", "coordinates": [-96.32691064486775, 10.577725336154343]}}, {"type": "Feature", "properties": {"norad_id": 29975, "name": "FENGYUN 1C DEB", "group": "fengyun-1c-debris", "lat": -30.827909391184154, "lon": -146.51526417271103, "alt_km": 961.4729157663332, "timestamp": "2025-12-23T20:42:37.348691+00:00", "meta": {"OBJECT_NAME": "FENGYUN 1C DEB", "OBJECT_ID": "1999-025KZ", "EPOCH": "2025-12-23T01:05:56.198976", "MEAN_MOTION": 13.980283, "ECCENTRICITY": 0.01131039, "INCLINATION": 99.3377, "RA_OF_ASC_NODE": 38.2887, "ARG_OF_PERICENTER": 345.7426, "MEAN_ANOMALY": 76.0318, "EPHEMERIS_TYPE": 0, "CLASSIFICATION_TYPE": "U", "NORAD_CAT_ID": 29975, "ELEMENT_SET_NO": 999, "REV_AT_EPOCH": 96581, "BSTAR": 0.0001469985, "MEAN_MOTION_DOT": 1.74e-06, "MEAN_MOTION_DDOT": 0}, "tle": {"line1": "1 29975U 99025KZ  25357.04578934  .00000174  00000+0  14700-3 0  9995", "line2": "2 29975  99.3377  38.2887 0113103 345.7426  76.0318 13.98028300965816"}}, "geometry": {"type": "Point", "coordinates": [-146.51526417271103, -30.827909391184154]}}, {"type": "Feature", "properties": {"norad_id": 29976, "name": "FENGYUN 1C DEB", "group": "fengyun-1c-debris", "lat": 31.15050747995612, "lon": -10.5739318553904, "alt_km": 1092.936048047255, "timestamp": "2025-12-23T20:42:37.348701+00:00", "meta": {"OBJECT_NAME": "FENGYUN 1C DEB", "OBJECT_ID": "1999-025LA", "EPOCH": "2025-12-22T10:59:45.113856", "MEAN_MOTION": 13.98122496, "ECCENTRICITY": 0.02674873, "INCLINATION": 98.9192, "RA_OF_ASC_NODE": 353.5058, "ARG_OF_PERICENTER": 212.5538, "MEAN_ANOMALY": 312.6031, "EPHEMERIS_TYPE": 0, "CLASSIFICATION_TYPE": "U", "NORAD_CAT_ID": 29976, "ELEMENT_SET_NO": 999, "REV_AT_EPOCH": 96472, "BSTAR": 0.00046214695, "MEAN_MOTION_DOT": 8.48e-06, "MEAN_MOTION_DDOT": 0}, "tle": {"line1": "1 29976U 99025LA  25356.45816104  .00000848  00000+0  46215-3 0  9998", "line2": "2 29976  98.9192 353.5058 0267487 212.5538 312.6031 13.98122496964721"}}, "geometry": {"type": "Point", "coordinates": [-10.5739318553904, 31.15050747995612]}}, {"type": "Feature", "properties": {"norad_id": 29977, "name": "FENGYUN 1C DEB", "group": "fengyun-1c-debris", "lat": -61.9490089574697, "lon": 22.99842412367979, "alt_km": 794.4158598023632, "timestamp": "2025-12-23T20:42:37.348711+00:00", "meta": {"OBJECT_NAME": "FENGYUN 1C DEB", "OBJECT_ID": "1999-025LB", "EPOCH": "2025-12-15T02:05:24.079200", "MEAN_MOTION": 14.0509794, "ECCENTRICITY": 0.0128352, "INCLINATION": 98.3968, "RA_OF_ASC_NODE": 210.9629, "ARG_OF_PERICENTER": 250.2626, "MEAN_ANOMALY": 265.3537, "EPHEMERIS_TYPE": 0, "CLASSIFICATION_TYPE": "U", "NORAD_CAT_ID": 29977, "ELEMENT_SET_NO": 999, "REV_AT_EPOCH": 96393, "BSTAR": 0.001211704, "MEAN_MOTION_DOT": 2.064e-05, "MEAN_MOTION_DDOT": 0}, "tle": {"line1": "1 29977U 99025LB  25349.08708425  .00002064  00000+0  12117-2 0  9991", "line2": "2 29977  98.3968 210.9629 0128352 250.2626 265.3537 14.05097940963932"}}, "geometry": {"type": "Point", "coordinates": [22.99842412367979, -61.9490089574697]}}, {"type": "Feature", "properties": {"norad_id": 29978, "name": "FENGYUN 1C DEB", "group": "fengyun-1c-debris", "lat": -41.359355756564675, "lon": 56.201848142526615, "alt_km": 889.6518204233043, "timestamp": "2025-12-23T20:42:37.348721+00:00", "meta": {"OBJECT_NAME": "FENGYUN 1C DEB", "OBJECT_ID": "1999-025LC", "EPOCH": "2025-12-23T02:07:38.526240", "MEAN_MOTION": 13.959114, "ECCENTRICITY": 0.00764178, "INCLINATION": 99.0599, "RA_OF_ASC_NODE": 47.3656, "ARG_OF_PERICENTER": 24.1226, "MEAN_ANOMALY": 5.8393, "EPHEMERIS_TYPE": 0, "CLASSIFICATION_TYPE": "U", "NORAD_CAT_ID": 29978, "ELEMENT_SET_NO": 999, "REV_AT_EPOCH": 96461, "BSTAR": 0.0002130439, "MEAN_MOTION_DOT": 2.55e-06, "MEAN_MOTION_DDOT": 0}, "tle": {"line1": "1 29978U 99025LC  25357.08864035  .00000255  00000+0  21304-3 0  9990", "line2": "2 29978  99.0599  47.3656 0076417  24.1226   5.8393 13.95911400964618"}}, "geometry": {"type": "Point", "coordinates": [56.201848142526615, -41.359355756564675]}}, {"type": "Feature", "properties": {"norad_id": 29979, "name": "FENGYUN 1C DEB", "group": "fengyun-1c-debris", "lat": 80.04474853805911, "lon": -102.41678223096709, "alt_km": 733.9792429347845, "timestamp": "2025-12-23T20:42:37.348732+00:00", "meta": {"OBJECT_NAME": "FENGYUN 1C DEB", "OBJECT_ID": "1999-025LD", "EPOCH": "2025-12-23T00:08:53.166624", "MEAN_MOTION": 14.25984366, "ECCENTRICITY": 0.01080014, "INCLINATION": 98.3694, "RA_OF_ASC_NODE": 19.7582, "ARG_OF_PERICENTER": 132.9603, "MEAN_ANOMALY": 247.4303, "EPHEMERIS_TYPE": 0, "CLASSIFICATION_TYPE": "U", "NORAD_CAT_ID": 29979, "ELEMENT_SET_NO": 999, "REV_AT_EPOCH": 98220, "BSTAR": 0.00037995118, "MEAN_MOTION_DOT": 9.23e-06, "MEAN_MOTION_DDOT": 0}, "tle": {"line1": "1 29979U 99025LD  25357.00617091  .00000923  00000+0  37995-3 0  9996", "line2": "2 29979  98.3694  19.7582 0108001 132.9603 247.4303 14.25984366982205"}}, "geometry": {"type": "Point", "coordinates": [-102.41678223096709, 80.04474853805911]}}, {"type": "Feature", "properties": {"norad_id": 29980, "name": "FENGYUN 1C DEB", "group": "fengyun-1c-debris", "lat": -38.941217017797904, "lon": 173.39404475047138, "alt_km": 893.744940212764, "timestamp": "2025-12-23T20:42:37.348742+00:00", "meta": {"OBJECT_NAME": "FENGYUN 1C DEB", "OBJECT_ID": "1999-025LE", "EPOCH": "2025-12-22T23:15:55.747872", "MEAN_MOTION": 14.06323023, "ECCENTRICITY": 0.008713, "INCLINATION": 98.5518, "RA_OF_ASC_NODE": 165.5657, "ARG_OF_PERICENTER": 218.6071, "MEAN_ANOMALY": 259.8182, "EPHEMERIS_TYPE": 0, "CLASSIFICATION_TYPE": "U", "NORAD_CAT_ID": 29980, "ELEMENT_SET_NO": 999, "REV_AT_EPOCH": 97136, "BSTAR": 7.6275594e-05, "MEAN_MOTION_DOT": 8.9e-07, "MEAN_MOTION_DDOT": 0}, "tle": {"line1": "1 29980U 99025LE  25356.96939523  .00000089  00000+0  76276-4 0  9998", "line2": "2 29980  98.5518 165.5657 0087130 218.6071 259.8182 14.06323023971360"}}, "geometry": {"type": "Point", "coordinates": [173.39404475047138, -38.941217017797904]}}, {"type": "Feature", "properties": {"norad_id": 29982, "name": "FENGYUN 1C DEB", "group": "fengyun-1c-debris", "lat": -80.58999438222055, "lon": -87.91897732267869, "alt_km": 595.3260261448768, "timestamp": "2025-12-23T20:42:37.348752+00:00", "meta": {"OBJECT_NAME": "FENGYUN 1C DEB", "OBJECT_ID": "1999-025LG", "EPOCH": "2025-12-23T02:00:33.725952", "MEAN_MOTION": 14.6695854, "ECCENTRICITY": 0.01216934, "INCLINATION": 99.4014, "RA_OF_ASC_NODE": 179.8662, "ARG_OF_PERICENTER": 256.6681, "MEAN_ANOMALY": 220.0677, "EPHEMERIS_TYPE": 0, "CLASSIFICATION_TYPE": "U", "NORAD_CAT_ID": 29982, "ELEMENT_SET_NO": 999, "REV_AT_EPOCH": 435, "BSTAR": 0.00068347705, "MEAN_MOTION_DOT": 4.205e-05, "MEAN_MOTION_DDOT": 0}, "tle": {"line1": "1 29982U 99025LG  25357.08372368  .00004205  00000+0  68348-3 0  9996", "line2": "2 29982  99.4014 179.8662 0121693 256.6681 220.0677 14.66958540  4358"}}, "geometry": {"type": "Point", "coordinates": [-87.91897732267869, -80.58999438222055]}}, {"type": "Feature", "properties": {"norad_id": 29985, "name": "FENGYUN 1C DEB", "group": "fengyun-1c-debris", "lat": 57.93472277690397, "lon": -1.5903944479487941, "alt_km": 862.3697045599056, "timestamp": "2025-12-23T20:42:37.348763+00:00", "meta": {"OBJECT_NAME": "FENGYUN 1C DEB", "OBJECT_ID": "1999-025LK", "EPOCH": "2025-12-22T22:36:21.180384", "MEAN_MOTION": 14.10325816, "ECCENTRICITY": 0.0028624, "INCLINATION": 98.71, "RA_OF_ASC_NODE": 11.682, "ARG_OF_PERICENTER": 179.8513, "MEAN_ANOMALY": 245.9434, "EPHEMERIS_TYPE": 0, "CLASSIFICATION_TYPE": "U", "NORAD_CAT_ID": 29985, "ELEMENT_SET_NO": 999, "REV_AT_EPOCH": 97492, "BSTAR": 2.4368e-05, "MEAN_MOTION_DOT": 1e-08, "MEAN_MOTION_DDOT": 0}, "tle": {"line1": "1 29985U 99025LK  25356.94191181  .00000001  00000+0  24368-4 0  9990", "line2": "2 29985  98.7100  11.6820 0028624 179.8513 245.9434 14.10325816974927"}}, "geometry": {"type": "Point", "coordinates": [-1.5903944479487941, 57.93472277690397]}}]}